[{"OBJECT_NAME":"STARLINK-31516","OBJECT_ID":"2024-046W","EPOCH":"2026-03-09T13:29:10.523040","MEAN_MOTION":15.3018646,"ECCENTRICITY":0.0001351,"INCLINATION":53.1608,"RA_OF_ASC_NODE":155.6669,"ARG_OF_PERICENTER":127.9911,"MEAN_ANOMALY":232.1212,"EPHEMERIS_TYPE":0,"CLASSIFICATION_TYPE":"U","NORAD_CAT_ID":59221,"ELEMENT_SET_NO":999,"REV_AT_EPOCH":11302,"BSTAR":-4.2693e-5,"MEAN_MOTION_DOT":-1.623e-5,"MEAN_MOTION_DDOT":0},{"OBJECT_NAME":"USA 55","OBJECT_ID":"1990-028B","EPOCH":"2026-03-09T23:32:27.967200","MEAN_MOTION":15.43003152,"ECCENTRICITY":0.00579189,"INCLINATION":94.0887,"RA_OF_ASC_NODE":87.6293,"ARG_OF_PERICENTER":152.9949,"MEAN_ANOMALY":207.4341,"EPHEMERIS_TYPE":0,"CLASSIFICATION_TYPE":"U","NORAD_CAT_ID":20547,"ELEMENT_SET_NO":999,"REV_AT_EPOCH":98658,"BSTAR":0.00013659834,"MEAN_MOTION_DOT":6.373e-5,"MEAN_MOTION_DDOT":0}]
